{"type":"FeatureCollection","features":[{"type":"Feature","properties":{"id":"11","name":"서울특별시","center":[37.55211,126.99191]},"geometry":{"type":"Polygon","coordinates":[[[126.76428,37.55534],[126.7643,37.55529],[126.76434,37.55522],[126.76444,37.55517],[126.76458,37.5551],[126.7672,37.55415],[126.76771,37.55419],[126.76777,37.55325],[126.76796,37.55269],[126.76856,37.55222],[126.77026,37.55002],[126.77058,37.54956],[126.77116,37.54871],[126.77341,37.54887],[126.77361,37.54888],[126.77475,37.54898],[126.77517,37.54898],[126.77548,37.54891],[126.77576,37.54876],[126.77633,37.54845],[126.77665,37.54825],[126.7799,37.54625],[126.78033,37.54616],[126.7812,37.54614],[126.78186,37.54614],[126.78306,37.54615],[126.78312,37.54615],[126.785,37.54616],[126.78508,37.54616],[126.79018,37.54384],[126.79334,37.54156],[126.79402,37.53986],[126.79387,37.53963],[126.79374,37.53944],[126.79384,37.53733],[126.794,37.53686],[126.7944,37.53583],[126.79872,37.53768],[126.79924,37.53929],[126.79977,37.54044],[126.80161,37.54246],[126.80285,37.54308],[126.80598,37.54321],[126.80897,37.54323],[126.80916,37.54323],[126.8093,37.54316],[126.80944,37.54235],[126.81038,37.54161],[126.81201,37.54102],[126.81225,37.54098],[126.81252,37.54093],[126.81291,37.54157],[126.8132,37.5421],[126.81359,37.54285],[126.81466,37.54064],[126.81622,37.54052],[126.81666,37.54051],[126.81682,37.54054],[126.81687,37.54054],[126.81698,37.54056],[126.8174,37.54061],[126.81769,37.54064],[126.81859,37.5407],[126.81993,37.54076],[126.82015,37.54076],[126.82086,37.54077],[126.82215,37.54068],[126.82185,37.53921],[126.82186,37.53918],[126.82193,37.53898],[126.82196,37.53887],[126.82212,37.53832],[126.82219,37.53807],[126.82226,37.53629],[126.82226,37.53618],[126.8222,37.53603],[126.82194,37.53562],[126.82177,37.53507],[126.82177,37.53493],[126.8218,37.53482],[126.82181,37.53479],[126.82258,37.53394],[126.82398,37.53179],[126.82474,37.53063],[126.82511,37.53018],[126.82529,37.53003],[126.82544,37.52995],[126.8255,37.52992],[126.82557,37.52988],[126.82561,37.52986],[126.82571,37.52984],[126.82578,37.52982],[126.82608,37.52976],[126.82617,37.52976],[126.82643,37.52983],[126.82659,37.52983],[126.82674,37.5298],[126.82681,37.52978],[126.82702,37.52972],[126.82718,37.52966],[126.82723,37.52963],[126.8273,37.52961],[126.82742,37.52953],[126.82791,37.52919],[126.82796,37.52915],[126.82809,37.52905],[126.82817,37.52896],[126.82821,37.52879],[126.82846,37.5267],[126.82815,37.5258],[126.82592,37.52408],[126.82525,37.52315],[126.82523,37.5231],[126.82521,37.52303],[126.82522,37.52298],[126.82559,37.52197],[126.82558,37.52049],[126.82558,37.52011],[126.82542,37.51909],[126.82411,37.5171],[126.82321,37.51619],[126.82317,37.51611],[126.82315,37.51607],[126.82314,37.51605],[126.82401,37.51062],[126.82433,37.5089],[126.82479,37.50829],[126.82296,37.50583],[126.82254,37.50401],[126.82189,37.50264],[126.82159,37.50206],[126.81935,37.4993],[126.81932,37.49928],[126.81874,37.49875],[126.81651,37.49781],[126.81593,37.49764],[126.81563,37.49755],[126.81423,37.49781],[126.81348,37.49806],[126.81309,37.49802],[126.81267,37.49663],[126.81272,37.49617],[126.81439,37.4932],[126.81786,37.49158],[126.81854,37.49165],[126.81941,37.49124],[126.82021,37.49087],[126.82026,37.49084],[126.82056,37.49065],[126.8206,37.49063],[126.82317,37.48855],[126.82333,37.48822],[126.82319,37.4875],[126.82233,37.48674],[126.8213,37.48619],[126.82126,37.48618],[126.82119,37.48615],[126.82037,37.48588],[126.81951,37.48556],[126.81943,37.48547],[126.81939,37.48537],[126.81942,37.48396],[126.81945,37.48271],[126.81993,37.48176],[126.81957,37.48028],[126.8182,37.47814],[126.81705,37.47812],[126.81644,37.47757],[126.81607,37.47712],[126.81609,37.47672],[126.81529,37.47645],[126.81487,37.47578],[126.81475,37.47467],[126.81551,37.47411],[126.81656,37.47406],[126.81709,37.47359],[126.81731,37.47318],[126.81784,37.47315],[126.81793,37.47347],[126.81867,37.47413],[126.81846,37.47518],[126.8195,37.47511],[126.81915,37.4755],[126.81922,37.47616],[126.82122,37.47625],[126.82168,37.47531],[126.82265,37.47586],[126.82419,37.47618],[126.82513,37.47676],[126.82597,37.47685],[126.82876,37.4761],[126.82928,37.47625],[126.82965,37.47669],[126.83179,37.47757],[126.83341,37.4769],[126.83579,37.47526],[126.83685,37.47505],[126.8369,37.47506],[126.83713,37.4751],[126.83733,37.47513],[126.83848,37.47538],[126.83884,37.47546],[126.83974,37.47505],[126.83978,37.475],[126.84,37.47479],[126.84013,37.47474],[126.84085,37.47463],[126.84101,37.47462],[126.84141,37.47471],[126.84174,37.4748],[126.84187,37.47483],[126.84197,37.47482],[126.84206,37.47479],[126.84217,37.4748],[126.84228,37.47482],[126.84237,37.47486],[126.8424,37.47487],[126.84244,37.47489],[126.84258,37.47492],[126.84271,37.47493],[126.84278,37.47492],[126.84291,37.4749],[126.84328,37.47483],[126.84347,37.47469],[126.84356,37.47455],[126.84361,37.47443],[126.84418,37.47402],[126.84462,37.47393],[126.84504,37.47384],[126.84533,37.4738],[126.84549,37.47408],[126.84554,37.47427],[126.84554,37.47434],[126.84555,37.47453],[126.84582,37.47657],[126.84589,37.47744],[126.84594,37.47816],[126.84594,37.47821],[126.84603,37.4797],[126.84648,37.4817],[126.84827,37.48236],[126.84817,37.48221],[126.84824,37.48211],[126.85001,37.48166],[126.85063,37.4816],[126.85109,37.48155],[126.85149,37.48159],[126.85189,37.48163],[126.85198,37.48167],[126.85256,37.48194],[126.85308,37.48229],[126.85324,37.4824],[126.85345,37.48261],[126.85348,37.48264],[126.85651,37.48569],[126.8577,37.4859],[126.85818,37.4863],[126.85834,37.48649],[126.85907,37.48733],[126.86126,37.48983],[126.86161,37.49018],[126.86172,37.49027],[126.86187,37.49039],[126.86309,37.49096],[126.86704,37.49296],[126.86831,37.4951],[126.86891,37.4951],[126.86961,37.4934],[126.86965,37.49252],[126.87005,37.49192],[126.87278,37.4888],[126.87529,37.48853],[126.87515,37.48648],[126.87474,37.48538],[126.87398,37.48505],[126.87391,37.48333],[126.87472,37.48141],[126.87516,37.48045],[126.87562,37.47948],[126.87572,37.47929],[126.87613,37.47852],[126.8763,37.47821],[126.87664,37.47759],[126.87666,37.47756],[126.87758,37.47605],[126.87782,37.47567],[126.87798,37.47543],[126.87815,37.47518],[126.87846,37.4747],[126.87901,37.47396],[126.87917,37.47374],[126.8795,37.4733],[126.87976,37.47296],[126.87986,37.47283],[126.8799,37.47278],[126.88065,37.47185],[126.88578,37.46582],[126.88607,37.46548],[126.88677,37.46468],[126.88865,37.46247],[126.88908,37.46153],[126.8891,37.4614],[126.88907,37.46125],[126.88896,37.46106],[126.88886,37.46092],[126.88868,37.46085],[126.88865,37.46083],[126.8886,37.46083],[126.88839,37.46083],[126.88822,37.4609],[126.88798,37.46101],[126.88762,37.46113],[126.88667,37.46098],[126.88606,37.46064],[126.88527,37.46006],[126.8862,37.45657],[126.88638,37.4562],[126.88717,37.45557],[126.88948,37.45275],[126.88953,37.45253],[126.88962,37.45235],[126.88971,37.45232],[126.89246,37.45194],[126.89263,37.45192],[126.89407,37.45264],[126.89483,37.45085],[126.89509,37.44843],[126.89612,37.44585],[126.89823,37.44465],[126.89851,37.44387],[126.89893,37.44238],[126.89912,37.44104],[126.8991,37.4396],[126.8988,37.43937],[126.89872,37.43931],[126.89878,37.43911],[126.89888,37.4388],[126.89894,37.43871],[126.89906,37.43855],[126.89908,37.43852],[126.89911,37.43847],[126.89934,37.43819],[126.89938,37.43814],[126.90049,37.43736],[126.90192,37.43637],[126.90279,37.43551],[126.90447,37.43406],[126.90724,37.43359],[126.90739,37.4336],[126.9082,37.43368],[126.90829,37.43371],[126.90873,37.43382],[126.90893,37.43391],[126.90911,37.43399],[126.90934,37.43416],[126.91038,37.43541],[126.91047,37.43565],[126.91082,37.4366],[126.91125,37.43738],[126.91132,37.43749],[126.91135,37.43754],[126.91236,37.43859],[126.91403,37.43982],[126.91412,37.43989],[126.91433,37.44004],[126.9148,37.4401],[126.91487,37.44009],[126.91522,37.44006],[126.91795,37.4399],[126.91805,37.43989],[126.91811,37.43992],[126.91943,37.44078],[126.91951,37.44085],[126.9199,37.44129],[126.91993,37.44134],[126.92096,37.44362],[126.92109,37.44413],[126.92212,37.44517],[126.92373,37.44665],[126.92535,37.44752],[126.92834,37.44969],[126.92875,37.45019],[126.93103,37.44782],[126.93091,37.44769],[126.93089,37.44759],[126.93088,37.44695],[126.93101,37.44579],[126.93103,37.44571],[126.93118,37.44558],[126.93155,37.44537],[126.93166,37.44532],[126.93188,37.44524],[126.93192,37.44523],[126.93364,37.4443],[126.9356,37.44323],[126.93724,37.44194],[126.93738,37.44177],[126.93837,37.44051],[126.93847,37.44031],[126.93843,37.44018],[126.93833,37.43997],[126.93818,37.43984],[126.93808,37.43978],[126.93802,37.43974],[126.93799,37.43969],[126.93794,37.43963],[126.93792,37.43959],[126.93789,37.43952],[126.93787,37.43891],[126.9379,37.43856],[126.93828,37.43753],[126.93936,37.43605],[126.93943,37.43596],[126.93949,37.43596],[126.93953,37.43596],[126.94063,37.43614],[126.9409,37.43625],[126.94134,37.43648],[126.94684,37.43855],[126.9479,37.43895],[126.94832,37.43909],[126.95173,37.43946],[126.95275,37.43953],[126.95318,37.43955],[126.95336,37.43953],[126.95347,37.43951],[126.95376,37.43944],[126.95404,37.43936],[126.95414,37.43933],[126.95422,37.43931],[126.95456,37.43921],[126.95493,37.43914],[126.95498,37.43913],[126.95535,37.43911],[126.9558,37.43912],[126.95627,37.43918],[126.95824,37.43951],[126.95837,37.43953],[126.96227,37.44066],[126.96275,37.44087],[126.96304,37.44102],[126.96311,37.44106],[126.96398,37.44204],[126.96409,37.44219],[126.9641,37.4423],[126.96411,37.44247],[126.96408,37.4428],[126.96405,37.44305],[126.96396,37.44342],[126.96391,37.44359],[126.96387,37.44373],[126.96387,37.44377],[126.96385,37.44385],[126.96383,37.44396],[126.96383,37.44422],[126.96399,37.44485],[126.96432,37.44543],[126.96436,37.44549],[126.96441,37.44558],[126.9645,37.44565],[126.96456,37.44569],[126.96541,37.44604],[126.96557,37.4461],[126.96811,37.44675],[126.96827,37.44677],[126.96848,37.44679],[126.96861,37.44679],[126.9687,37.44679],[126.97081,37.44746],[126.97398,37.4476],[126.97406,37.44765],[126.97866,37.4519],[126.98236,37.45516],[126.98684,37.45741],[126.98862,37.45814],[126.99176,37.45967],[126.99683,37.46218],[126.99696,37.4625],[126.99716,37.46352],[126.99722,37.46394],[126.99646,37.4648],[126.99628,37.46672],[126.99975,37.46716],[127.00342,37.46726],[127.00417,37.46478],[127.00516,37.46306],[127.01106,37.45539],[127.01617,37.45537],[127.01786,37.45561],[127.02053,37.45617],[127.0216,37.45658],[127.02185,37.45668],[127.02262,37.45698],[127.02338,37.45728],[127.02469,37.45781],[127.0258,37.45836],[127.0261,37.45851],[127.02986,37.46345],[127.02999,37.4639],[127.03008,37.46418],[127.02986,37.46545],[127.03127,37.46578],[127.03272,37.46525],[127.03314,37.46502],[127.03407,37.46441],[127.03437,37.46419],[127.03458,37.46404],[127.03473,37.46385],[127.03437,37.46304],[127.03407,37.46248],[127.03401,37.46236],[127.03343,37.46108],[127.03378,37.46003],[127.03492,37.45787],[127.03516,37.45762],[127.03541,37.45753],[127.03548,37.45752],[127.03562,37.45751],[127.03583,37.45755],[127.03788,37.44914],[127.03789,37.44908],[127.03836,37.44565],[127.03837,37.44554],[127.03837,37.44546],[127.03832,37.44516],[127.03821,37.44473],[127.0382,37.4447],[127.03818,37.44463],[127.03815,37.44457],[127.03809,37.44441],[127.038,37.44423],[127.03757,37.44345],[127.03681,37.44215],[127.03676,37.44208],[127.03671,37.44203],[127.03665,37.44199],[127.0366,37.44195],[127.03652,37.4419],[127.03541,37.44117],[127.03539,37.44112],[127.03539,37.44099],[127.03541,37.44083],[127.03542,37.44074],[127.03545,37.44054],[127.03546,37.44049],[127.03547,37.44044],[127.0358,37.43927],[127.03584,37.43919],[127.03586,37.43916],[127.03717,37.43852],[127.03731,37.43849],[127.03739,37.43848],[127.03748,37.43847],[127.03902,37.43843],[127.03958,37.43847],[127.03971,37.43849],[127.03981,37.4385],[127.03991,37.4385],[127.04001,37.43848],[127.04052,37.43834],[127.04087,37.43821],[127.04097,37.43817],[127.04106,37.43811],[127.04371,37.43572],[127.04407,37.43539],[127.0441,37.43535],[127.04422,37.43523],[127.0443,37.43512],[127.04435,37.43503],[127.04444,37.43482],[127.04445,37.43477],[127.04447,37.4347],[127.0445,37.43465],[127.04454,37.43454],[127.04458,37.43448],[127.0446,37.43445],[127.04466,37.43436],[127.04472,37.4343],[127.04478,37.43426],[127.04486,37.43419],[127.04493,37.43414],[127.04505,37.43407],[127.04512,37.43403],[127.04523,37.43398],[127.04535,37.43393],[127.04539,37.43391],[127.04543,37.4339],[127.04559,37.43386],[127.04604,37.43372],[127.04616,37.43368],[127.04619,37.43366],[127.04628,37.43361],[127.04634,37.43355],[127.04639,37.43348],[127.04641,37.43342],[127.04643,37.43337],[127.04647,37.4332],[127.04649,37.4331],[127.04655,37.43293],[127.04661,37.43281],[127.04665,37.43272],[127.04674,37.43259],[127.04683,37.43248],[127.04696,37.43234],[127.04699,37.43232],[127.04709,37.43222],[127.04719,37.43207],[127.04724,37.43197],[127.04726,37.4319],[127.04747,37.43087],[127.04896,37.43055],[127.04987,37.43031],[127.05089,37.42965],[127.05459,37.42941],[127.05789,37.43014],[127.05797,37.43013],[127.06188,37.42983],[127.06316,37.42971],[127.06429,37.4292],[127.06467,37.42915],[127.06538,37.42904],[127.06553,37.42902],[127.06567,37.42901],[127.06569,37.42912],[127.0657,37.42915],[127.06578,37.42927],[127.06601,37.42959],[127.06675,37.43013],[127.06816,37.43058],[127.06935,37.43042],[127.07046,37.43006],[127.07092,37.43185],[127.07143,37.4352],[127.07263,37.43639],[127.07338,37.43934],[127.07197,37.44001],[127.07168,37.44156],[127.07166,37.4417],[127.07165,37.4418],[127.07168,37.44183],[127.07176,37.44192],[127.07179,37.44194],[127.07192,37.44209],[127.07215,37.44221],[127.07237,37.44233],[127.07242,37.44235],[127.07476,37.44242],[127.07633,37.44227],[127.07674,37.44218],[127.07704,37.442],[127.07708,37.44197],[127.07734,37.44181],[127.081,37.44096],[127.08122,37.44098],[127.08129,37.44098],[127.08158,37.441],[127.08231,37.4412],[127.08257,37.44146],[127.08323,37.44255],[127.08394,37.44382],[127.08413,37.444],[127.08543,37.44494],[127.08555,37.44499],[127.08565,37.44503],[127.08799,37.44506],[127.08819,37.44637],[127.08832,37.44864],[127.08969,37.4512],[127.09082,37.45283],[127.09096,37.45298],[127.09138,37.45331],[127.09214,37.45362],[127.09307,37.45482],[127.09428,37.45652],[127.09512,37.4583],[127.09495,37.45842],[127.09463,37.45878],[127.09541,37.46029],[127.09587,37.46106],[127.09632,37.46143],[127.09685,37.45961],[127.09821,37.45879],[127.10056,37.45905],[127.1035,37.45963],[127.10396,37.46011],[127.10448,37.46102],[127.10473,37.46215],[127.10631,37.46254],[127.10664,37.46248],[127.10826,37.46217],[127.11128,37.46171],[127.11202,37.46156],[127.1134,37.46107],[127.11337,37.46083],[127.1133,37.46078],[127.11322,37.46072],[127.11301,37.46058],[127.11288,37.46048],[127.11325,37.46004],[127.11364,37.45974],[127.1156,37.4586],[127.11675,37.45859],[127.11678,37.45914],[127.1169,37.4605],[127.11693,37.46079],[127.11695,37.46101],[127.11699,37.46126],[127.11708,37.46154],[127.11718,37.46182],[127.11746,37.46217],[127.12185,37.46503],[127.12229,37.46521],[127.12383,37.4663],[127.12507,37.4689],[127.12577,37.46921],[127.12659,37.46885],[127.1282,37.46814],[127.12863,37.46795],[127.12869,37.46793],[127.12873,37.46791],[127.12987,37.46791],[127.13056,37.46763],[127.13096,37.4677],[127.13268,37.46823],[127.13187,37.46973],[127.13229,37.47028],[127.13237,37.47123],[127.13259,37.47485],[127.13715,37.47434],[127.14345,37.4741],[127.14354,37.47525],[127.1439,37.476],[127.14419,37.47656],[127.14424,37.47732],[127.1474,37.47722],[127.14772,37.48175],[127.14874,37.48399],[127.14984,37.48527],[127.15196,37.48658],[127.15225,37.48625],[127.15764,37.48914],[127.1573,37.48963],[127.15768,37.49017],[127.1582,37.49046],[127.15842,37.4907],[127.15974,37.4936],[127.15981,37.49376],[127.15998,37.49422],[127.16003,37.49438],[127.16005,37.49445],[127.16005,37.49452],[127.16005,37.4946],[127.1601,37.49716],[127.16056,37.4977],[127.16138,37.49961],[127.16138,37.49983],[127.16138,37.50025],[127.16055,37.50115],[127.15787,37.50301],[127.15762,37.50309],[127.15665,37.50209],[127.15647,37.5019],[127.15621,37.50199],[127.15617,37.502],[127.15532,37.50229],[127.15456,37.50255],[127.15415,37.50269],[127.15396,37.50276],[127.15372,37.50275],[127.1536,37.50275],[127.15347,37.50275],[127.15321,37.50275],[127.15301,37.50291],[127.15282,37.50306],[127.15263,37.50312],[127.15225,37.50309],[127.15215,37.50309],[127.15206,37.50311],[127.1519,37.50315],[127.15179,37.50325],[127.15167,37.50337],[127.15084,37.50411],[127.15012,37.50451],[127.14929,37.50407],[127.14864,37.50373],[127.14769,37.50327],[127.14605,37.50337],[127.1456,37.50343],[127.14524,37.5035],[127.14513,37.50359],[127.1451,37.50362],[127.14506,37.50365],[127.14437,37.50439],[127.14356,37.50445],[127.1434,37.50452],[127.14301,37.50467],[127.14114,37.50545],[127.14104,37.50557],[127.14093,37.5057],[127.14116,37.50631],[127.14128,37.50694],[127.14023,37.50839],[127.13997,37.50859],[127.14025,37.50983],[127.14027,37.5099],[127.14034,37.51011],[127.14038,37.51022],[127.14113,37.51232],[127.14206,37.51279],[127.14258,37.51275],[127.14352,37.51269],[127.14329,37.51398],[127.14113,37.51564],[127.14466,37.51555],[127.1454,37.5161],[127.1454,37.51633],[127.14541,37.51649],[127.14488,37.5168],[127.14461,37.51696],[127.14501,37.51693],[127.14491,37.51756],[127.14488,37.51777],[127.14484,37.51803],[127.14473,37.51942],[127.14508,37.52026],[127.14524,37.52066],[127.14564,37.52162],[127.1458,37.52199],[127.14635,37.52201],[127.14653,37.52202],[127.14742,37.52207],[127.14776,37.52217],[127.14844,37.52303],[127.14852,37.5232],[127.14854,37.52325],[127.14898,37.52419],[127.14895,37.52431],[127.14897,37.52436],[127.14906,37.5246],[127.14943,37.52563],[127.14958,37.52588],[127.14966,37.52596],[127.1498,37.5261],[127.15082,37.52697],[127.15194,37.52791],[127.15222,37.52814],[127.15243,37.52833],[127.15266,37.52856],[127.15311,37.52909],[127.15326,37.52933],[127.15351,37.53033],[127.15357,37.53102],[127.15355,37.534],[127.15385,37.53417],[127.15441,37.53476],[127.15456,37.53493],[127.15673,37.53758],[127.15687,37.53776],[127.15699,37.53794],[127.15701,37.53805],[127.157,37.53817],[127.15699,37.53837],[127.15756,37.53903],[127.15868,37.54015],[127.15966,37.541],[127.1604,37.5416],[127.16319,37.54502],[127.16411,37.54486],[127.1686,37.54519],[127.17397,37.54553],[127.17413,37.54541],[127.17425,37.54532],[127.17439,37.54522],[127.17465,37.54522],[127.17559,37.54521],[127.17689,37.54586],[127.17763,37.54621],[127.17884,37.54658],[127.17905,37.54664],[127.17925,37.5466],[127.17977,37.54651],[127.18013,37.54644],[127.18061,37.5461],[127.18091,37.54588],[127.18355,37.54583],[127.18337,37.54602],[127.18283,37.54656],[127.18139,37.55285],[127.18138,37.55302],[127.18137,37.55315],[127.18158,37.55762],[127.18165,37.55789],[127.18171,37.55817],[127.18183,37.55865],[127.18185,37.55873],[127.18188,37.55886],[127.18193,37.55915],[127.18198,37.55941],[127.18199,37.55945],[127.18199,37.55959],[127.18202,37.56022],[127.18199,37.56062],[127.18197,37.56094],[127.18182,37.56133],[127.18156,37.56175],[127.18112,37.56244],[127.17976,37.56505],[127.17965,37.56541],[127.1796,37.56556],[127.17957,37.56567],[127.17957,37.56571],[127.17948,37.56654],[127.17945,37.56756],[127.17942,37.56774],[127.1794,37.56787],[127.17926,37.56869],[127.17924,37.56876],[127.17923,37.56882],[127.17911,37.56915],[127.17782,37.57147],[127.17614,37.57413],[127.17606,37.57428],[127.17592,37.57461],[127.17582,37.57485],[127.17536,37.57729],[127.1754,37.57761],[127.17546,37.57802],[127.17551,37.57838],[127.17697,37.57946],[127.17738,37.58022],[127.17767,37.58083],[127.17694,37.58071],[127.17501,37.58005],[127.17395,37.57958],[127.17192,37.57942],[127.16863,37.5793],[127.16606,37.57958],[127.16471,37.57952],[127.16157,37.5778],[127.15299,37.57373],[127.14719,37.57172],[127.14133,37.57028],[127.13382,37.56845],[127.13322,37.56819],[127.13298,37.56809],[127.13277,37.56801],[127.13228,37.56781],[127.13207,37.56772],[127.13183,37.56763],[127.13174,37.56759],[127.13146,37.56749],[127.13138,37.56745],[127.12236,37.56428],[127.12228,37.56425],[127.12175,37.56399],[127.12077,37.56351],[127.11936,37.56266],[127.11758,37.56097],[127.11682,37.56017],[127.11668,37.56002],[127.11651,37.56],[127.11548,37.55985],[127.11499,37.55995],[127.11441,37.56007],[127.11393,37.56016],[127.11348,37.56025],[127.11377,37.55889],[127.11147,37.55889],[127.11002,37.55846],[127.10896,37.55982],[127.10425,37.55988],[127.10115,37.56002],[127.10108,37.56076],[127.10108,37.56082],[127.10109,37.56091],[127.10334,37.56965],[127.10337,37.56975],[127.10338,37.56979],[127.10343,37.56989],[127.1035,37.57003],[127.10375,37.57042],[127.1038,37.57048],[127.10383,37.57053],[127.1039,37.57062],[127.10395,37.57066],[127.10398,37.57069],[127.10407,37.5708],[127.10416,37.57092],[127.10418,37.571],[127.10419,37.57105],[127.10419,37.5711],[127.10401,37.57168],[127.104,37.57171],[127.10397,37.57173],[127.10383,37.57183],[127.10369,37.57194],[127.10326,37.57223],[127.10316,37.57229],[127.10308,37.57233],[127.10297,37.57237],[127.10293,37.57237],[127.10164,37.57256],[127.10093,37.57356],[127.10126,37.57498],[127.10267,37.5783],[127.10268,37.57891],[127.10273,37.5794],[127.10275,37.5796],[127.10276,37.58106],[127.10277,37.58176],[127.10047,37.58257],[127.09975,37.58305],[127.10267,37.5841],[127.10603,37.58456],[127.10933,37.58466],[127.10953,37.58507],[127.10984,37.58597],[127.11014,37.58742],[127.1124,37.59186],[127.11391,37.59334],[127.11535,37.5935],[127.11782,37.59401],[127.11837,37.59502],[127.11802,37.59534],[127.1165,37.59678],[127.116,37.59724],[127.11596,37.59728],[127.11396,37.59942],[127.11389,37.59952],[127.11385,37.59982],[127.11383,37.59996],[127.11428,37.60035],[127.11522,37.60126],[127.11689,37.60315],[127.11801,37.60458],[127.11828,37.60628],[127.11838,37.60738],[127.11832,37.60761],[127.11821,37.60775],[127.11818,37.60779],[127.1179,37.60814],[127.11714,37.60861],[127.11662,37.60882],[127.1168,37.60991],[127.11759,37.61171],[127.11731,37.61293],[127.11693,37.61436],[127.11667,37.61577],[127.11697,37.61743],[127.11567,37.61929],[127.11399,37.61942],[127.11395,37.61943],[127.11383,37.61949],[127.11274,37.62007],[127.11148,37.62061],[127.11134,37.62065],[127.11098,37.62076],[127.11085,37.62078],[127.11064,37.62079],[127.11039,37.62079],[127.11024,37.62077],[127.11012,37.62076],[127.11001,37.62074],[127.10983,37.62071],[127.10951,37.62064],[127.10908,37.62052],[127.10875,37.62046],[127.10735,37.6205],[127.10614,37.6206],[127.10604,37.62064],[127.10582,37.62078],[127.10571,37.62083],[127.10572,37.6209],[127.1057,37.62095],[127.10566,37.621],[127.10562,37.62102],[127.1055,37.62106],[127.10542,37.62111],[127.10537,37.62113],[127.1053,37.62115],[127.10525,37.62116],[127.10511,37.62117],[127.10502,37.62117],[127.10496,37.62117],[127.10435,37.62146],[127.10429,37.62149],[127.10424,37.62152],[127.10407,37.62166],[127.10403,37.62169],[127.10398,37.62177],[127.10366,37.62247],[127.10351,37.6229],[127.10353,37.62304],[127.10353,37.62307],[127.10526,37.62691],[127.10537,37.62714],[127.10549,37.62726],[127.10862,37.62914],[127.11042,37.63014],[127.11084,37.63047],[127.11091,37.63053],[127.11098,37.63059],[127.11142,37.63133],[127.11204,37.63262],[127.11238,37.63523],[127.11195,37.64027],[127.11134,37.642],[127.11115,37.64241],[127.10975,37.64249],[127.1097,37.64251],[127.10964,37.64255],[127.10959,37.64258],[127.10956,37.64261],[127.10918,37.64292],[127.10907,37.64303],[127.10822,37.64416],[127.10807,37.64452],[127.10803,37.64464],[127.10742,37.64503],[127.10657,37.64549],[127.10396,37.64563],[127.10139,37.64538],[127.09781,37.64528],[127.09493,37.64551],[127.09445,37.64576],[127.09394,37.64633],[127.09348,37.64699],[127.09258,37.64881],[127.09255,37.64888],[127.09245,37.64925],[127.09237,37.6496],[127.09234,37.64973],[127.0923,37.64992],[127.09229,37.64995],[127.0923,37.64999],[127.0936,37.65332],[127.09282,37.6549],[127.09062,37.6549],[127.08921,37.65495],[127.08658,37.65541],[127.08634,37.6555],[127.08603,37.65591],[127.08845,37.65662],[127.09023,37.65728],[127.09244,37.65809],[127.09396,37.66257],[127.09441,37.66436],[127.09573,37.67042],[127.09575,37.672],[127.09574,37.67227],[127.09563,37.6726],[127.09556,37.67281],[127.09361,37.67662],[127.09298,37.67728],[127.09279,37.67738],[127.09246,37.67736],[127.09227,37.67748],[127.09204,37.67792],[127.09193,37.67839],[127.09184,37.67892],[127.09184,37.67901],[127.09183,37.67919],[127.0927,37.68158],[127.0928,37.68178],[127.09281,37.6818],[127.09428,37.68355],[127.09467,37.684],[127.09499,37.68408],[127.09506,37.6841],[127.0954,37.68419],[127.09553,37.68426],[127.09563,37.68432],[127.09586,37.68475],[127.09629,37.68574],[127.09629,37.68579],[127.09632,37.68595],[127.09592,37.68772],[127.09579,37.68886],[127.09558,37.68894],[127.0955,37.68897],[127.09531,37.68904],[127.09495,37.68917],[127.09284,37.68968],[127.09241,37.68971],[127.09233,37.68972],[127.0922,37.68973],[127.08993,37.68989],[127.08959,37.68981],[127.08941,37.68977],[127.08899,37.68976],[127.08624,37.69031],[127.08583,37.69045],[127.08493,37.69084],[127.08502,37.69085],[127.08514,37.691],[127.08514,37.69142],[127.08429,37.69401],[127.08377,37.69466],[127.08349,37.69461],[127.08286,37.6951],[127.08176,37.69638],[127.07734,37.69638],[127.07594,37.69596],[127.07446,37.69548],[127.07292,37.69446],[127.07283,37.69443],[127.07263,37.69435],[127.072,37.69426],[127.07104,37.69413],[127.07043,37.69408],[127.06994,37.69426],[127.06939,37.69437],[127.06881,37.69406],[127.06837,37.69358],[127.06826,37.69347],[127.06566,37.6906],[127.06564,37.69047],[127.06547,37.69023],[127.06535,37.69005],[127.06511,37.68985],[127.06451,37.68964],[127.0618,37.68898],[127.06038,37.68869],[127.05885,37.68894],[127.05816,37.68915],[127.05755,37.6894],[127.05683,37.68957],[127.05482,37.68935],[127.05463,37.68929],[127.05294,37.68813],[127.05078,37.68702],[127.05045,37.68739],[127.05039,37.68749],[127.05035,37.68754],[127.05026,37.6877],[127.05014,37.68788],[127.05006,37.68818],[127.05005,37.68822],[127.05003,37.68851],[127.05,37.68877],[127.05002,37.6892],[127.05003,37.68929],[127.05008,37.68961],[127.05012,37.68985],[127.05013,37.69011],[127.0501,37.69035],[127.05007,37.69045],[127.04937,37.69291],[127.04912,37.69352],[127.0482,37.69391],[127.04509,37.69244],[127.04321,37.69467],[127.0432,37.69491],[127.04319,37.69503],[127.04312,37.69515],[127.04301,37.69521],[127.04172,37.69535],[127.04158,37.69536],[127.04153,37.69534],[127.04143,37.6953],[127.04102,37.69503],[127.0408,37.69492],[127.04072,37.6949],[127.04062,37.69487],[127.04055,37.69486],[127.0405,37.69484],[127.04043,37.69482],[127.04038,37.69478],[127.04026,37.69469],[127.04023,37.69466],[127.04001,37.69443],[127.03981,37.69421],[127.03975,37.69414],[127.03969,37.69409],[127.03905,37.69388],[127.03885,37.69363],[127.03855,37.69336],[127.03843,37.69327],[127.03838,37.69324],[127.03589,37.69224],[127.03584,37.69222],[127.03416,37.69189],[127.03411,37.69189],[127.03407,37.69188],[127.03282,37.69172],[127.03257,37.6917],[127.0325,37.69171],[127.03247,37.69171],[127.03117,37.6929],[127.03114,37.69294],[127.03007,37.69523],[127.02993,37.69561],[127.02986,37.69579],[127.02973,37.69619],[127.0297,37.69635],[127.0297,37.69654],[127.02973,37.69676],[127.02973,37.69697],[127.02973,37.69708],[127.0297,37.69747],[127.0297,37.69757],[127.02967,37.6977],[127.02939,37.69859],[127.0293,37.69882],[127.02928,37.69886],[127.02922,37.699],[127.029,37.69938],[127.02889,37.69954],[127.02821,37.70039],[127.02807,37.70056],[127.02803,37.70059],[127.02799,37.70061],[127.02796,37.70062],[127.02722,37.70071],[127.02715,37.70072],[127.02711,37.7007],[127.02707,37.70065],[127.02704,37.7006],[127.02701,37.70052],[127.027,37.7005],[127.02695,37.7004],[127.02689,37.7003],[127.02684,37.70026],[127.02678,37.70022],[127.02565,37.69966],[127.02551,37.69961],[127.0254,37.69957],[127.0253,37.69955],[127.02507,37.69948],[127.02497,37.69945],[127.0249,37.69944],[127.02482,37.69944],[127.02478,37.69944],[127.0247,37.69945],[127.02215,37.69959],[127.02209,37.6996],[127.02028,37.70051],[127.01989,37.70075],[127.01979,37.70083],[127.01968,37.70095],[127.01957,37.70108],[127.01585,37.70103],[127.01502,37.69867],[127.01498,37.6986],[127.01494,37.69855],[127.01461,37.69832],[127.01453,37.69828],[127.01449,37.69827],[127.01437,37.69826],[127.01379,37.69825],[127.01278,37.69824],[127.01238,37.69824],[127.01234,37.69824],[127.01219,37.69824],[127.01215,37.69825],[127.0121,37.69825],[127.01204,37.69825],[127.01199,37.69825],[127.01195,37.69824],[127.01192,37.69821],[127.01075,37.69705],[127.00921,37.69523],[127.00916,37.69515],[127.00913,37.69511],[127.00907,37.69502],[127.0089,37.69472],[127.00884,37.69461],[127.00882,37.69455],[127.00806,37.6906],[127.00806,37.69055],[127.00808,37.68912],[127.00809,37.68903],[127.00814,37.68891],[127.00819,37.68883],[127.00829,37.68874],[127.00855,37.68849],[127.00864,37.68839],[127.00869,37.6883],[127.00871,37.68824],[127.00896,37.68711],[127.00897,37.68705],[127.00897,37.68697],[127.00896,37.68661],[127.00881,37.68533],[127.00875,37.68511],[127.00872,37.68501],[127.0087,37.68497],[127.00869,37.68494],[127.00863,37.68487],[127.0084,37.68473],[127.00829,37.68468],[127.00666,37.68503],[127.00657,37.68505],[127.00636,37.6851],[127.00615,37.68515],[127.00586,37.68522],[127.00575,37.68523],[127.00565,37.68523],[127.00419,37.68517],[127.00386,37.68514],[127.00364,37.6851],[126.99799,37.68382],[126.99791,37.68379],[126.99774,37.68365],[126.99766,37.68358],[126.99754,37.68346],[126.99735,37.68328],[126.99714,37.68306],[126.99581,37.68193],[126.99385,37.68028],[126.9938,37.68025],[126.99307,37.67989],[126.99174,37.67947],[126.99257,37.67878],[126.99276,37.67841],[126.99296,37.67761],[126.99299,37.67742],[126.99355,37.67324],[126.99426,37.66648],[126.99416,37.66628],[126.99284,37.66502],[126.99243,37.66483],[126.98984,37.6639],[126.98937,37.6638],[126.98802,37.66334],[126.98664,37.66141],[126.98641,37.66098],[126.98618,37.66066],[126.985,37.6593],[126.98485,37.6592],[126.98464,37.65906],[126.98307,37.65811],[126.98169,37.65753],[126.98142,37.65749],[126.98129,37.65742],[126.97995,37.65658],[126.97978,37.65642],[126.97965,37.65622],[126.97957,37.65608],[126.97955,37.65603],[126.97945,37.65583],[126.97945,37.65574],[126.97964,37.65488],[126.9797,37.65479],[126.98099,37.6529],[126.9821,37.65143],[126.98224,37.6513],[126.98351,37.65003],[126.98363,37.64991],[126.9837,37.64978],[126.98462,37.64755],[126.98464,37.64746],[126.98496,37.64599],[126.98496,37.6459],[126.98494,37.64582],[126.98478,37.64551],[126.9842,37.64447],[126.98376,37.64412],[126.98362,37.64404],[126.98345,37.64394],[126.98332,37.6438],[126.98324,37.6437],[126.98325,37.64365],[126.98327,37.6436],[126.98388,37.64217],[126.98392,37.64213],[126.98398,37.64206],[126.98404,37.64199],[126.98411,37.64191],[126.98426,37.64177],[126.98589,37.64057],[126.98637,37.64065],[126.98463,37.63656],[126.98366,37.63646],[126.98359,37.63645],[126.97854,37.63385],[126.97672,37.63263],[126.97507,37.63139],[126.97179,37.63229],[126.97087,37.63299],[126.96876,37.63698],[126.96879,37.63705],[126.96886,37.63842],[126.96882,37.63868],[126.96829,37.63932],[126.96501,37.64276],[126.96476,37.64295],[126.96442,37.64307],[126.96173,37.64516],[126.95975,37.64846],[126.95677,37.65265],[126.95634,37.65307],[126.95462,37.65475],[126.95355,37.65502],[126.95258,37.65472],[126.95236,37.65473],[126.95233,37.65473],[126.95207,37.65476],[126.95125,37.65495],[126.95119,37.65499],[126.95116,37.65501],[126.94879,37.65696],[126.94759,37.65835],[126.94745,37.65868],[126.94743,37.65871],[126.94742,37.65874],[126.94731,37.65893],[126.94708,37.65899],[126.94653,37.65891],[126.94632,37.65887],[126.94362,37.65815],[126.94282,37.65788],[126.94255,37.65779],[126.94119,37.65715],[126.94103,37.65706],[126.94039,37.65663],[126.93938,37.6555],[126.93926,37.65534],[126.93897,37.65495],[126.93859,37.65442],[126.9385,37.65416],[126.93704,37.65193],[126.93519,37.65089],[126.93473,37.65064],[126.93449,37.65056],[126.93127,37.65062],[126.9312,37.65063],[126.93039,37.65056],[126.92974,37.6504],[126.92889,37.64996],[126.9287,37.64983],[126.92861,37.64977],[126.92851,37.6497],[126.92794,37.64929],[126.92691,37.64853],[126.92599,37.64786],[126.92567,37.64762],[126.9255,37.6475],[126.92542,37.64744],[126.92522,37.64734],[126.92514,37.64729],[126.92454,37.64696],[126.92336,37.64634],[126.92243,37.64594],[126.92217,37.64585],[126.92209,37.64582],[126.92153,37.64564],[126.92127,37.64556],[126.91419,37.64468],[126.91389,37.64471],[126.91287,37.64506],[126.91237,37.64525],[126.91118,37.6458],[126.90777,37.64763],[126.90527,37.64891],[126.90758,37.64649],[126.91223,37.64438],[126.91247,37.6418],[126.91247,37.64169],[126.9123,37.64143],[126.9121,37.64126],[126.91171,37.64102],[126.91082,37.64016],[126.91023,37.63867],[126.90982,37.63511],[126.90917,37.63478],[126.90748,37.63341],[126.90732,37.63327],[126.90726,37.63321],[126.90723,37.63319],[126.90653,37.63252],[126.90655,37.63205],[126.90663,37.63178],[126.90665,37.63173],[126.90717,37.63058],[126.90742,37.63022],[126.90881,37.62905],[126.90794,37.62539],[126.90709,37.62475],[126.9066,37.6242],[126.90644,37.62403],[126.9052,37.62002],[126.90524,37.6195],[126.90339,37.6188],[126.90189,37.61559],[126.90103,37.61246],[126.90115,37.61237],[126.90121,37.61233],[126.90187,37.61],[126.90198,37.60939],[126.90221,37.60709],[126.90171,37.60573],[126.90208,37.60382],[126.90026,37.60315],[126.90023,37.60203],[126.90048,37.60131],[126.90072,37.601],[126.90087,37.60077],[126.90123,37.60012],[126.90149,37.59937],[126.90142,37.59827],[126.90136,37.59618],[126.90056,37.5943],[126.89995,37.59377],[126.89933,37.59324],[126.89899,37.59266],[126.89901,37.59259],[126.89958,37.59046],[126.89978,37.58997],[126.89984,37.58987],[126.89696,37.58862],[126.8914,37.58846],[126.88741,37.58858],[126.88726,37.58859],[126.88632,37.58943],[126.88581,37.59008],[126.88544,37.59109],[126.88622,37.59233],[126.88658,37.59384],[126.88482,37.59339],[126.88432,37.59267],[126.88412,37.59241],[126.88393,37.59218],[126.88338,37.59172],[126.88224,37.59094],[126.88049,37.58981],[126.88037,37.58971],[126.88029,37.58964],[126.87763,37.5862],[126.87667,37.58412],[126.87663,37.58156],[126.87747,37.58031],[126.87763,37.57975],[126.87752,37.57952],[126.87744,37.5794],[126.87708,37.5789],[126.87626,37.57896],[126.87335,37.57885],[126.86799,37.57739],[126.86664,37.57645],[126.86495,37.57584],[126.86172,37.57586],[126.85785,37.57562],[126.85775,37.57464],[126.85669,37.57477],[126.85094,37.57562],[126.82683,37.58835],[126.82387,37.58926],[126.82225,37.58993],[126.82043,37.59084],[126.82026,37.59096],[126.81805,37.59264],[126.81606,37.59436],[126.81337,37.59679],[126.81247,37.5976],[126.81128,37.59868],[126.811,37.59894],[126.81013,37.59972],[126.81001,37.59982],[126.80987,37.59995],[126.80719,37.60231],[126.80689,37.60258],[126.80664,37.60279],[126.8055,37.60369],[126.80494,37.60402],[126.80432,37.60429],[126.80397,37.60441],[126.80351,37.60451],[126.80289,37.60462],[126.80237,37.60465],[126.80222,37.60466],[126.80185,37.60465],[126.80128,37.6045],[126.80093,37.60434],[126.8006,37.6041],[126.80035,37.60382],[126.79792,37.60075],[126.79761,37.60026],[126.79747,37.59999],[126.79723,37.59934],[126.79714,37.59904],[126.7971,37.59891],[126.79702,37.59849],[126.79706,37.59793],[126.79707,37.59788],[126.79711,37.59728],[126.79725,37.59659],[126.79753,37.59587],[126.79758,37.59576],[126.79906,37.59211],[126.80062,37.58927],[126.80081,37.58901],[126.80082,37.58897],[126.80088,37.58875],[126.80079,37.588],[126.80068,37.5879],[126.79964,37.58802],[126.79883,37.58822],[126.79869,37.5881],[126.79834,37.58779],[126.79736,37.58558],[126.79703,37.58418],[126.7969,37.58402],[126.79626,37.58345],[126.79595,37.58318],[126.79591,37.58316],[126.79572,37.58312],[126.79482,37.58331],[126.79367,37.5816],[126.7937,37.58154],[126.7934,37.58052],[126.79274,37.58017],[126.79125,37.58084],[126.78877,37.5773],[126.78807,37.57674],[126.78458,37.57467],[126.78289,37.5737],[126.7827,37.57356],[126.78262,37.57342],[126.78257,37.57335],[126.7819,37.57185],[126.78197,37.57169],[126.7825,37.57023],[126.78053,37.56833],[126.77696,37.56634],[126.77546,37.56538],[126.77563,37.5618],[126.77073,37.55716],[126.77031,37.55719],[126.76973,37.5572],[126.76946,37.55715],[126.76937,37.55714],[126.76457,37.55551],[126.76447,37.55546],[126.76439,37.55543],[126.76433,37.5554],[126.76431,37.55538],[126.76428,37.55534]]]}}]}